{"type": "FeatureCollection", "features": [ {"type": "Feature", "properties": {"norad_id": 66406, "name": "STARLINK-34840", "group": "last-30-days", "lat": -29.217963595096457, "lon": -97.35333503538068, "alt_km": 422.48761419103994, "timestamp": "2025-12-07T18:50:15.512889+00:00", "meta": {"OBJECT_NAME": "STARLINK-34840", "OBJECT_ID": "2025-257AC", "EPOCH": "2025-12-07T06:36:52.046496", "MEAN_MOTION": 15.4933642, "ECCENTRICITY": 0.00012255, "INCLINATION": 53.1588, "RA_OF_ASC_NODE": 289.8753, "ARG_OF_PERICENTER": 75.6016, "MEAN_ANOMALY": 284.5129, "EPHEMERIS_TYPE": 0, "CLASSIFICATION_TYPE": "U", "NORAD_CAT_ID": 66406, "ELEMENT_SET_NO": 999, "REV_AT_EPOCH": 547, "BSTAR": 0.0018456505, "MEAN_MOTION_DOT": 0.00103672, "MEAN_MOTION_DDOT": 0}, "tle": {"line1": "1 66406U 25257AC  25341.27560239  .00103672  00000+0  18457-2 0  9997", "line2": "2 66406  53.1588 289.8753 0001225  75.6016 284.5129 15.49336420  5475"}}, "geometry": {"type": "Point", "coordinates": [-97.35333503538068, -29.217963595096457]}}, {"type": "Feature", "properties": {"norad_id": 66407, "name": "STARLINK-35686", "group": "last-30-days", "lat": -31.82207453726431, "lon": -100.2819917320355, "alt_km": 422.6462728946117, "timestamp": "2025-12-07T18:50:15.512900+00:00", "meta": {"OBJECT_NAME": "STARLINK-35686", "OBJECT_ID": "2025-257AD", "EPOCH": "2025-12-07T06:37:50.728512", "MEAN_MOTION": 15.49392932, "ECCENTRICITY": 0.00012662, "INCLINATION": 53.1588, "RA_OF_ASC_NODE": 289.8788, "ARG_OF_PERICENTER": 98.048, "MEAN_ANOMALY": 262.0672, "EPHEMERIS_TYPE": 0, "CLASSIFICATION_TYPE": "U", "NORAD_CAT_ID": 66407, "ELEMENT_SET_NO": 999, "REV_AT_EPOCH": 553, "BSTAR": 0.0027900349, "MEAN_MOTION_DOT": 0.00158374, "MEAN_MOTION_DDOT": 0}, "tle": {"line1": "1 66407U 25257AD  25341.27628158  .00158374  00000+0  27900-2 0  9995", "line2": "2 66407  53.1588 289.8788 0001266  98.0480 262.0672 15.49392932  5534"}}, "geometry": {"type": "Point", "coordinates": [-100.2819917320355, -31.82207453726431]}}, {"type": "Feature", "properties": {"norad_id": 66408, "name": "STARLINK-35679", "group": "last-30-days", "lat": -30.593444852600317, "lon": -98.86954910120676, "alt_km": 422.9155175927699, "timestamp": "2025-12-07T18:50:15.512910+00:00", "meta": {"OBJECT_NAME": "STARLINK-35679", "OBJECT_ID": "2025-257AE", "EPOCH": "2025-12-07T05:04:27.952896", "MEAN_MOTION": 15.49312249, "ECCENTRICITY": 0.00011643, "INCLINATION": 53.1586, "RA_OF_ASC_NODE": 290.1876, "ARG_OF_PERICENTER": 106.4329, "MEAN_ANOMALY": 253.6808, "EPHEMERIS_TYPE": 0, "CLASSIFICATION_TYPE": "U", "NORAD_CAT_ID": 66408, "ELEMENT_SET_NO": 999, "REV_AT_EPOCH": 552, "BSTAR": 0.0019260579, "MEAN_MOTION_DOT": 0.00108178, "MEAN_MOTION_DDOT": 0}, "tle": {"line1": "1 66408U 25257AE  25341.21143464  .00108178  00000+0  19261-2 0  9990", "line2": "2 66408  53.1586 290.1876 0001164 106.4329 253.6808 15.49312249  5528"}}, "geometry": {"type": "Point", "coordinates": [-98.86954910120676, -30.593444852600317]}}, {"type": "Feature", "properties": {"norad_id": 66409, "name": "CHUTIAN-2 A", "group": "last-30-days", "lat": 34.17530499970686, "lon": -127.6936659636949, "alt_km": 717.2044400216319, "timestamp": "2025-12-07T18:50:15.512920+00:00", "meta": {"OBJECT_NAME": "CHUTIAN-2 A", "OBJECT_ID": "2025-256A", "EPOCH": "2025-12-07T06:34:31.354464", "MEAN_MOTION": 14.49930829, "ECCENTRICITY": 0.001342, "INCLINATION": 98.2777, "RA_OF_ASC_NODE": 46.1318, "ARG_OF_PERICENTER": 194.3287, "MEAN_ANOMALY": 165.7528, "EPHEMERIS_TYPE": 0, "CLASSIFICATION_TYPE": "U", "NORAD_CAT_ID": 66409, "ELEMENT_SET_NO": 999, "REV_AT_EPOCH": 408, "BSTAR": 0.0003502438, "MEAN_MOTION_DOT": 1.312e-05, "MEAN_MOTION_DDOT": 0}, "tle": {"line1": "1 66409U 25256A   25341.27397401  .00001312  00000+0  35024-3 0  9996", "line2": "2 66409  98.2777  46.1318 0013420 194.3287 165.7528 14.49930829  4089"}}, "geometry": {"type": "Point", "coordinates": [-127.6936659636949, 34.17530499970686]}}, {"type": "Feature", "properties": {"norad_id": 66410, "name": "CHUTIAN-2 B", "group": "last-30-days", "lat": -42.75124268889006, "lon": -141.0609210008272, "alt_km": 720.3919557527634, "timestamp": "2025-12-07T18:50:15.512931+00:00", "meta": {"OBJECT_NAME": "CHUTIAN-2 B", "OBJECT_ID": "2025-256B", "EPOCH": "2025-12-07T06:13:37.987680", "MEAN_MOTION": 14.51015508, "ECCENTRICITY": 0.00134979, "INCLINATION": 98.2802, "RA_OF_ASC_NODE": 46.1587, "ARG_OF_PERICENTER": 198.0623, "MEAN_ANOMALY": 162.0094, "EPHEMERIS_TYPE": 0, "CLASSIFICATION_TYPE": "U", "NORAD_CAT_ID": 66410, "ELEMENT_SET_NO": 999, "REV_AT_EPOCH": 408, "BSTAR": 0.00033640509, "MEAN_MOTION_DOT": 1.288e-05, "MEAN_MOTION_DDOT": 0}, "tle": {"line1": "1 66410U 25256B   25341.25946745  .00001288  00000+0  33641-3 0  9992", "line2": "2 66410  98.2802  46.1587 0013497 198.0623 162.0094 14.51015508  4086"}}, "geometry": {"type": "Point", "coordinates": [-141.0609210008272, -42.75124268889006]}}, {"type": "Feature", "properties": {"norad_id": 66411, "name": "ZK-1A R/B", "group": "last-30-days", "lat": 4.895545343751923, "lon": 48.48994380442561, "alt_km": 597.3754122723021, "timestamp": "2025-12-07T18:50:15.512942+00:00", "meta": {"OBJECT_NAME": "ZK-1A R/B", "OBJECT_ID": "2025-256C", "EPOCH": "2025-12-07T04:25:25.846752", "MEAN_MOTION": 15.01785762, "ECCENTRICITY": 0.02288938, "INCLINATION": 98.3231, "RA_OF_ASC_NODE": 48.564, "ARG_OF_PERICENTER": 263.5392, "MEAN_ANOMALY": 93.9725, "EPHEMERIS_TYPE": 0, "CLASSIFICATION_TYPE": "U", "NORAD_CAT_ID": 66411, "ELEMENT_SET_NO": 999, "REV_AT_EPOCH": 421, "BSTAR": 0.00091204585, "MEAN_MOTION_DOT": 0.00021001, "MEAN_MOTION_DDOT": 0}, "tle": {"line1": "1 66411U 25256C   25341.18432693  .00021001  00000+0  91205-3 0  9992", "line2": "2 66411  98.3231  48.5640 0228893 263.5392  93.9725 15.01785762  4219"}}, "geometry": {"type": "Point", "coordinates": [48.48994380442561, 4.895545343751923]}}, {"type": "Feature", "properties": {"norad_id": 66412, "name": "HULIANWANG DIGUI 13A", "group": "last-30-days", "lat": -42.784772643852136, "lon": -128.12196491565493, "alt_km": 820.1489676661786, "timestamp": "2025-12-07T18:50:15.512954+00:00", "meta": {"OBJECT_NAME": "HULIANWANG DIGUI 13A", "OBJECT_ID": "2025-258A", "EPOCH": "2025-12-07T07:19:03.505152", "MEAN_MOTION": 14.21250084, "ECCENTRICITY": 0.00096275, "INCLINATION": 50.0043, "RA_OF_ASC_NODE": 284.8754, "ARG_OF_PERICENTER": 337.5879, "MEAN_ANOMALY": 22.4612, "EPHEMERIS_TYPE": 0, "CLASSIFICATION_TYPE": "U", "NORAD_CAT_ID": 66412, "ELEMENT_SET_NO": 999, "REV_AT_EPOCH": 388, "BSTAR": 0.00033085322, "MEAN_MOTION_DOT": 5.67e-06, "MEAN_MOTION_DDOT": 0}, "tle": {"line1": "1 66412U 25258A   25341.30490168  .00000567  00000+0  33085-3 0  9996", "line2": "2 66412  50.0043 284.8754 0009627 337.5879  22.4612 14.21250084  3880"}}, "geometry": {"type": "Point", "coordinates": [-128.12196491565493, -42.784772643852136]}}, {"type": "Feature", "properties": {"norad_id": 66413, "name": "HULIANWANG DIGUI 13B", "group": "last-30-days", "lat": -46.75646984211954, "lon": 166.15584979345417, "alt_km": 827.2532906300221, "timestamp": "2025-12-07T18:50:15.512965+00:00", "meta": {"OBJECT_NAME": "HULIANWANG DIGUI 13B", "OBJECT_ID": "2025-258B", "EPOCH": "2025-12-07T05:50:16.367136", "MEAN_MOTION": 14.20619145, "ECCENTRICITY": 0.0008598, "INCLINATION": 50.0006, "RA_OF_ASC_NODE": 285.2053, "ARG_OF_PERICENTER": 336.8166, "MEAN_ANOMALY": 23.2357, "EPHEMERIS_TYPE": 0, "CLASSIFICATION_TYPE": "U", "NORAD_CAT_ID": 66413, "ELEMENT_SET_NO": 999, "REV_AT_EPOCH": 387, "BSTAR": 0.00037447659, "MEAN_MOTION_DOT": 6.53e-06, "MEAN_MOTION_DDOT": 0}, "tle": {"line1": "1 66413U 25258B   25341.24324499  .00000653  00000+0  37448-3 0  9996", "line2": "2 66413  50.0006 285.2053 0008598 336.8166  23.2357 14.20619145  3874"}}, "geometry": {"type": "Point", "coordinates": [166.15584979345417, -46.75646984211954]}}, {"type": "Feature", "properties": {"norad_id": 66414, "name": "HULIANWANG DIGUI 13C", "group": "last-30-days", "lat": -49.986832791722506, "lon": -167.34553789021638, "alt_km": 824.7939615890682, "timestamp": "2025-12-07T18:50:15.512975+00:00", "meta": {"OBJECT_NAME": "HULIANWANG DIGUI 13C", "OBJECT_ID": "2025-258C", "EPOCH": "2025-12-07T07:26:37.425696", "MEAN_MOTION": 14.20776676, "ECCENTRICITY": 0.00091234, "INCLINATION": 50.0051, "RA_OF_ASC_NODE": 284.9075, "ARG_OF_PERICENTER": 336.8193, "MEAN_ANOMALY": 23.2306, "EPHEMERIS_TYPE": 0, "CLASSIFICATION_TYPE": "U", "NORAD_CAT_ID": 66414, "ELEMENT_SET_NO": 999, "REV_AT_EPOCH": 388, "BSTAR": 0.00037132255, "MEAN_MOTION_DOT": 6.49e-06, "MEAN_MOTION_DDOT": 0}, "tle": {"line1": "1 66414U 25258C   25341.31015539  .00000649  00000+0  37132-3 0  9992", "line2": "2 66414  50.0051 284.9075 0009123 336.8193  23.2306 14.20776676  3888"}}, "geometry": {"type": "Point", "coordinates": [-167.34553789021638, -49.986832791722506]}}, {"type": "Feature", "properties": {"norad_id": 66415, "name": "HULIANWANG DIGUI 13D", "group": "last-30-days", "lat": -37.93834579742621, "lon": -118.03067895738509, "alt_km": 819.2889351499234, "timestamp": "2025-12-07T18:50:15.512988+00:00", "meta": {"OBJECT_NAME": "HULIANWANG DIGUI 13D", "OBJECT_ID": "2025-258D", "EPOCH": "2025-12-07T07:16:36.200928", "MEAN_MOTION": 14.21453615, "ECCENTRICITY": 0.00091538, "INCLINATION": 50.0046, "RA_OF_ASC_NODE": 284.8666, "ARG_OF_PERICENTER": 343.9806, "MEAN_ANOMALY": 16.0815, "EPHEMERIS_TYPE": 0, "CLASSIFICATION_TYPE": "U", "NORAD_CAT_ID": 66415, "ELEMENT_SET_NO": 999, "REV_AT_EPOCH": 388, "BSTAR": 0.00031699862, "MEAN_MOTION_DOT": 5.39e-06, "MEAN_MOTION_DDOT": 0}, "tle": {"line1": "1 66415U 25258D   25341.30319677  .00000539  00000+0  31700-3 0  9995", "line2": "2 66415  50.0046 284.8666 0009153 343.9806  16.0815 14.21453615  3882"}}, "geometry": {"type": "Point", "coordinates": [-118.03067895738509, -37.93834579742621]}}]}